CCSDS_OMM_VERS = 2.0
CREATION_DATE  = 
ORIGINATOR     = 

OBJECT_NAME    = STARLINK-35844
OBJECT_ID      = 2025-283C
CENTER_NAME    = EARTH
REF_FRAME      = TEME
TIME_SYSTEM    = UTC
MEAN_ELEMENT_THEORY = SGP/SGP4

EPOCH          = 2025-12-23T04:00:01.998720
MEAN_MOTION    = 15.70762351
ECCENTRICITY   = .0001455
INCLINATION    = 53.1591
RA_OF_ASC_NODE = 21.6782
ARG_OF_PERICENTER = 93.8195
MEAN_ANOMALY   = 105.4271

EPHEMERIS_TYPE = 0
CLASSIFICATION_TYPE = U
NORAD_CAT_ID   = 66880
ELEMENT_SET_NO = 999
REV_AT_EPOCH   = 410
BSTAR          = -.17646E-1
MEAN_MOTION_DOT = -.1974542E-1
MEAN_MOTION_DDOT = 0

CCSDS_OMM_VERS = 2.0
CREATION_DATE  = 
ORIGINATOR     = 

OBJECT_NAME    = STARLINK-35860
OBJECT_ID      = 2025-283D
CENTER_NAME    = EARTH
REF_FRAME      = TEME
TIME_SYSTEM    = UTC
MEAN_ELEMENT_THEORY = SGP/SGP4

EPOCH          = 2025-12-23T04:00:01.998720
MEAN_MOTION    = 15.70761334
ECCENTRICITY   = .0001349
INCLINATION    = 53.1592
RA_OF_ASC_NODE = 21.6695
ARG_OF_PERICENTER = 88.6147
MEAN_ANOMALY   = 114.4674

EPHEMERIS_TYPE = 0
CLASSIFICATION_TYPE = U
NORAD_CAT_ID   = 66881
ELEMENT_SET_NO = 999
REV_AT_EPOCH   = 410
BSTAR          = -.17662E-1
MEAN_MOTION_DOT = -.1975877E-1
MEAN_MOTION_DDOT = 0

CCSDS_OMM_VERS = 2.0
CREATION_DATE  = 
ORIGINATOR     = 

OBJECT_NAME    = STARLINK-35912
OBJECT_ID      = 2025-283E
CENTER_NAME    = EARTH
REF_FRAME      = TEME
TIME_SYSTEM    = UTC
MEAN_ELEMENT_THEORY = SGP/SGP4

EPOCH          = 2025-12-23T04:00:01.998720
MEAN_MOTION    = 15.70761692
ECCENTRICITY   = .0001512
INCLINATION    = 53.1592
RA_OF_ASC_NODE = 21.6662
ARG_OF_PERICENTER = 89.5195
MEAN_ANOMALY   = 115.4754

EPHEMERIS_TYPE = 0
CLASSIFICATION_TYPE = U
NORAD_CAT_ID   = 66882
ELEMENT_SET_NO = 999
REV_AT_EPOCH   = 410
BSTAR          = -.17622E-1
MEAN_MOTION_DOT = -.1972102E-1
MEAN_MOTION_DDOT = 0

CCSDS_OMM_VERS = 2.0
CREATION_DATE  = 
ORIGINATOR     = 

OBJECT_NAME    = STARLINK-35947
OBJECT_ID      = 2025-283F
CENTER_NAME    = EARTH
REF_FRAME      = TEME
TIME_SYSTEM    = UTC
MEAN_ELEMENT_THEORY = SGP/SGP4

EPOCH          = 2025-12-23T04:00:01.998720
MEAN_MOTION    = 15.70761647
ECCENTRICITY   = .0001404
INCLINATION    = 53.1591
RA_OF_ASC_NODE = 21.6627
ARG_OF_PERICENTER = 92.6269
MEAN_ANOMALY   = 114.2886

EPHEMERIS_TYPE = 0
CLASSIFICATION_TYPE = U
NORAD_CAT_ID   = 66883
ELEMENT_SET_NO = 999
REV_AT_EPOCH   = 415
BSTAR          = -.17651E-1
MEAN_MOTION_DOT = -.1974888E-1
MEAN_MOTION_DDOT = 0

CCSDS_OMM_VERS = 2.0
CREATION_DATE  = 
ORIGINATOR     = 

OBJECT_NAME    = STARLINK-36057
OBJECT_ID      = 2025-283G
CENTER_NAME    = EARTH
REF_FRAME      = TEME
TIME_SYSTEM    = UTC
MEAN_ELEMENT_THEORY = SGP/SGP4

EPOCH          = 2025-12-23T04:00:01.998720
MEAN_MOTION    = 15.70761265
ECCENTRICITY   = .0001409
INCLINATION    = 53.1591
RA_OF_ASC_NODE = 21.6537
ARG_OF_PERICENTER = 97.5233
MEAN_ANOMALY   = 113.2248

EPHEMERIS_TYPE = 0
CLASSIFICATION_TYPE = U
NORAD_CAT_ID   = 66884
ELEMENT_SET_NO = 999
REV_AT_EPOCH   = 410
BSTAR          = -.17631E-1
MEAN_MOTION_DOT = -.1972904E-1
MEAN_MOTION_DDOT = 0

CCSDS_OMM_VERS = 2.0
CREATION_DATE  = 
ORIGINATOR     = 

OBJECT_NAME    = STARLINK-35954
OBJECT_ID      = 2025-283H
CENTER_NAME    = EARTH
REF_FRAME      = TEME
TIME_SYSTEM    = UTC
MEAN_ELEMENT_THEORY = SGP/SGP4

EPOCH          = 2025-12-23T04:00:01.998720
MEAN_MOTION    = 15.70763495
ECCENTRICITY   = .00013
INCLINATION    = 53.1592
RA_OF_ASC_NODE = 21.6576
ARG_OF_PERICENTER = 94.1679
MEAN_ANOMALY   = 114.6621

EPHEMERIS_TYPE = 0
CLASSIFICATION_TYPE = U
NORAD_CAT_ID   = 66885
ELEMENT_SET_NO = 999
REV_AT_EPOCH   = 410
BSTAR          = -.17655E-1
MEAN_MOTION_DOT = -.1975372E-1
MEAN_MOTION_DDOT = 0

CCSDS_OMM_VERS = 2.0
CREATION_DATE  = 
ORIGINATOR     = 

OBJECT_NAME    = STARLINK-35900
OBJECT_ID      = 2025-283J
CENTER_NAME    = EARTH
REF_FRAME      = TEME
TIME_SYSTEM    = UTC
MEAN_ELEMENT_THEORY = SGP/SGP4

EPOCH          = 2025-12-23T04:00:01.998720
MEAN_MOTION    = 15.70651557
ECCENTRICITY   = .0001605
INCLINATION    = 53.1592
RA_OF_ASC_NODE = 21.6492
ARG_OF_PERICENTER = 115.5132
MEAN_ANOMALY   = 97.2389

EPHEMERIS_TYPE = 0
CLASSIFICATION_TYPE = U
NORAD_CAT_ID   = 66886
ELEMENT_SET_NO = 999
REV_AT_EPOCH   = 410
BSTAR          = -.16628E-1
MEAN_MOTION_DOT = -.1829645E-1
MEAN_MOTION_DDOT = 0

CCSDS_OMM_VERS = 2.0
CREATION_DATE  = 
ORIGINATOR     = 

OBJECT_NAME    = STARLINK-35925
OBJECT_ID      = 2025-283K
CENTER_NAME    = EARTH
REF_FRAME      = TEME
TIME_SYSTEM    = UTC
MEAN_ELEMENT_THEORY = SGP/SGP4

EPOCH          = 2025-12-23T04:00:01.998720
MEAN_MOTION    = 15.70761800
ECCENTRICITY   = .0001367
INCLINATION    = 53.1592
RA_OF_ASC_NODE = 21.6458
ARG_OF_PERICENTER = 91.8830
MEAN_ANOMALY   = 122.6998

EPHEMERIS_TYPE = 0
CLASSIFICATION_TYPE = U
NORAD_CAT_ID   = 66887
ELEMENT_SET_NO = 999
REV_AT_EPOCH   = 410
BSTAR          = -.17653E-1
MEAN_MOTION_DOT = -.1975113E-1
MEAN_MOTION_DDOT = 0

CCSDS_OMM_VERS = 2.0
CREATION_DATE  = 
ORIGINATOR     = 

OBJECT_NAME    = STARLINK-35919
OBJECT_ID      = 2025-283L
CENTER_NAME    = EARTH
REF_FRAME      = TEME
TIME_SYSTEM    = UTC
MEAN_ELEMENT_THEORY = SGP/SGP4

EPOCH          = 2025-12-23T04:00:01.998720
MEAN_MOTION    = 15.70759004
ECCENTRICITY   = .0001386
INCLINATION    = 53.1589
RA_OF_ASC_NODE = 21.6417
ARG_OF_PERICENTER = 89.7097
MEAN_ANOMALY   = 126.7903

EPHEMERIS_TYPE = 0
CLASSIFICATION_TYPE = U
NORAD_CAT_ID   = 66888
ELEMENT_SET_NO = 999
REV_AT_EPOCH   = 410
BSTAR          = -.1762E-1
MEAN_MOTION_DOT = -.1971595E-1
MEAN_MOTION_DDOT = 0

CCSDS_OMM_VERS = 2.0
CREATION_DATE  = 
ORIGINATOR     = 

OBJECT_NAME    = STARLINK-35852
OBJECT_ID      = 2025-283M
CENTER_NAME    = EARTH
REF_FRAME      = TEME
TIME_SYSTEM    = UTC
MEAN_ELEMENT_THEORY = SGP/SGP4

EPOCH          = 2025-12-23T04:00:01.998720
MEAN_MOTION    = 15.70762352
ECCENTRICITY   = .0001437
INCLINATION    = 53.1592
RA_OF_ASC_NODE = 21.6370
ARG_OF_PERICENTER = 88.5641
MEAN_ANOMALY   = 129.8500

EPHEMERIS_TYPE = 0
CLASSIFICATION_TYPE = U
NORAD_CAT_ID   = 66889
ELEMENT_SET_NO = 999
REV_AT_EPOCH   = 410
BSTAR          = -.17648E-1
MEAN_MOTION_DOT = -.1974712E-1
MEAN_MOTION_DDOT = 0

CCSDS_OMM_VERS = 2.0
CREATION_DATE  = 
ORIGINATOR     = 

OBJECT_NAME    = STARLINK-35885
OBJECT_ID      = 2025-283N
CENTER_NAME    = EARTH
REF_FRAME      = TEME
TIME_SYSTEM    = UTC
MEAN_ELEMENT_THEORY = SGP/SGP4

EPOCH          = 2025-12-23T04:00:01.998720
MEAN_MOTION    = 15.70764037
ECCENTRICITY   = .0001365
INCLINATION    = 53.1591
RA_OF_ASC_NODE = 21.6333
ARG_OF_PERICENTER = 97.7169
MEAN_ANOMALY   = 122.6133

EPHEMERIS_TYPE = 0
CLASSIFICATION_TYPE = U
NORAD_CAT_ID   = 66890
ELEMENT_SET_NO = 999
REV_AT_EPOCH   = 410
BSTAR          = -.17645E-1
MEAN_MOTION_DOT = -.1974464E-1
MEAN_MOTION_DDOT = 0

CCSDS_OMM_VERS = 2.0
CREATION_DATE  = 
ORIGINATOR     = 

OBJECT_NAME    = STARLINK-35855
OBJECT_ID      = 2025-283P
CENTER_NAME    = EARTH
REF_FRAME      = TEME
TIME_SYSTEM    = UTC
MEAN_ELEMENT_THEORY = SGP/SGP4

EPOCH          = 2025-12-23T04:00:01.998720
MEAN_MOTION    = 15.70762372
ECCENTRICITY   = .0001394
INCLINATION    = 53.1590
RA_OF_ASC_NODE = 21.6291
ARG_OF_PERICENTER = 97.1388
MEAN_ANOMALY   = 125.1115

EPHEMERIS_TYPE = 0
CLASSIFICATION_TYPE = U
NORAD_CAT_ID   = 66891
ELEMENT_SET_NO = 999
REV_AT_EPOCH   = 410
BSTAR          = -.17663E-1
MEAN_MOTION_DOT = -.1976124E-1
MEAN_MOTION_DDOT = 0

