STARLINK-35844          
1 66880U 25283C   25357.16668980 -.01974542  00000+0 -17646-1 0  9992
2 66880  53.1591  21.6782 0001455  93.8195 105.4271 15.70762351  4102
STARLINK-35860          
1 66881U 25283D   25357.16668980 -.01975877  00000+0 -17662-1 0  9993
2 66881  53.1592  21.6695 0001349  88.6147 114.4674 15.70761334  4105
STARLINK-35912          
1 66882U 25283E   25357.16668980 -.01972102  00000+0 -17622-1 0  9998
2 66882  53.1592  21.6662 0001512  89.5195 115.4754 15.70761692  4102
STARLINK-35947          
1 66883U 25283F   25357.16668980 -.01974888  00000+0 -17651-1 0  9994
2 66883  53.1591  21.6627 0001404  92.6269 114.2886 15.70761647  4158
STARLINK-36057          
1 66884U 25283G   25357.16668980 -.01972904  00000+0 -17631-1 0  9990
2 66884  53.1591  21.6537 0001409  97.5233 113.2248 15.70761265  4101
STARLINK-35954          
1 66885U 25283H   25357.16668980 -.01975372  00000+0 -17655-1 0  9999
2 66885  53.1592  21.6576 0001300  94.1679 114.6621 15.70763495  4100
STARLINK-35900          
1 66886U 25283J   25357.16668980 -.01829645  00000+0 -16628-1 0  9990
2 66886  53.1592  21.6492 0001605 115.5132  97.2389 15.70651557  4100
STARLINK-35925          
1 66887U 25283K   25357.16668980 -.01975113  00000+0 -17653-1 0  9992
2 66887  53.1592  21.6458 0001367  91.8830 122.6998 15.70761800  4101
STARLINK-35919          
1 66888U 25283L   25357.16668980 -.01971595  00000+0 -17620-1 0  9997
2 66888  53.1589  21.6417 0001386  89.7097 126.7903 15.70759004  4109
STARLINK-35852          
1 66889U 25283M   25357.16668980 -.01974712  00000+0 -17648-1 0  9992
2 66889  53.1592  21.6370 0001437  88.5641 129.8500 15.70762352  4108
STARLINK-35885          
1 66890U 25283N   25357.16668980 -.01974464  00000+0 -17645-1 0  9995
2 66890  53.1591  21.6333 0001365  97.7169 122.6133 15.70764037  4100
STARLINK-35855          
1 66891U 25283P   25357.16668980 -.01976124  00000+0 -17663-1 0  9991
2 66891  53.1590  21.6291 0001394  97.1388 125.1115 15.70762372  4100
